NORAD_CAT_ID,OBJECT_NAME,OBJECT_TYPE,EPOCH,MEAN_MOTION,ECCENTRICITY,INCLINATION,RA_OF_ASC_NODE,ARG_OF_PERICENTER,MEAN_ANOMALY,BSTAR,MEAN_MOTION_DOT,MEAN_MOTION_DDOT,TLE_LINE0,TLE_LINE1,TLE_LINE2,SEMIMAJOR_AXIS,PERIOD,APOGEE,PERIGEE,DECAYED
53402.0,STARLINK-4499,PAYLOAD,2023-08-27 13:20:13,15.08838677,0.0001406,53.2176,317.2101,78.4544,281.6606,0.00032247,4.848e-05,0.0,0 STARLINK-4499,1 53402U 22097Q   23239.55570835  .00004848  00000-0  32247-3 0  9996,2 53402  53.2176 317.2101 0001406  78.4544 281.6606 15.08838677 58362,6917.884,95.438,540.722,538.777,0.0
53402.0,STARLINK-4499,PAYLOAD,2023-08-28 13:10:59,15.08842099,0.000133,53.2176,312.7486,93.0706,267.0438,9.4071e-05,1.21e-05,0.0,0 STARLINK-4499,1 53402U 22097Q   23240.54930544  .00001210  00000-0  94071-4 0  9998,2 53402  53.2176 312.7486 0001330  93.0706 267.0438 15.08842099 59003,6917.874,95.437,540.659,538.819,0.0
53402.0,STARLINK-4499,PAYLOAD,2023-08-29 09:51:00,15.08841793,0.0001256,53.2174,308.8831,94.699,265.4146,7.175e-05,8.54e-06,0.0,0 STARLINK-4499,1 53402U 22097Q   23241.41042603  .00000854  00000-0  71750-4 0  9997,2 53402  53.2174 308.8831 0001256  94.6990 265.4146 15.08841793 58647,6917.875,95.437,540.609,538.871,0.0
53402.0,STARLINK-4499,PAYLOAD,2023-08-29 11:26:23,15.08844543,0.000137,53.2174,308.5855,97.6138,262.501,7.6179e-05,9.25e-06,0.0,0 STARLINK-4499,1 53402U 22097Q   23241.47666413  .00000925  00000-0  76179-4 0  9993,2 53402  53.2174 308.5855 0001370  97.6138 262.5010 15.08844543 59144,6917.867,95.437,540.679,538.784,0.0
53402.0,STARLINK-4499,PAYLOAD,2023-08-30 08:06:25,15.08837107,0.0001232,53.2171,304.7198,92.5719,267.5414,1.8236e-05,2e-08,0.0,0 STARLINK-4499,1 53402U 22097Q   23242.33779091  .00000002  00000-0  18236-4 0  9992,2 53402  53.2171 304.7198 0001232  92.5719 267.5414 15.08837107 58785,6917.889,95.438,540.607,538.902,0.0
53402.0,STARLINK-4499,PAYLOAD,2023-08-30 20:49:30,15.08841999,0.0001455,53.218,302.3419,91.2142,268.9016,1.9412e-05,2.1e-07,0.0,0 STARLINK-4499,1 53402U 22097Q   23242.86770898  .00000021  00000-0  19412-4 0  9994,2 53402  53.2180 302.3419 0001455  91.2142 268.9016 15.08841999 59359,6917.874,95.437,540.746,538.733,0.0
53402.0,STARLINK-4499,PAYLOAD,2023-08-31 07:57:12,15.08836358,0.0001522,53.2178,300.2605,98.0273,262.0892,5.9169e-05,6.54e-06,0.0,0 STARLINK-4499,1 53402U 22097Q   23243.33139230  .00000654  00000-0  59169-4 0  9991,2 53402  53.2178 300.2605 0001522  98.0273 262.0892 15.08836358 59423,6917.892,95.438,540.809,538.704,0.0
53402.0,STARLINK-4499,PAYLOAD,2023-09-01 12:34:06,15.08893266,0.0002068,53.2184,294.914,79.784,280.3386,-9.2421e-05,-1.761e-05,0.0,0 STARLINK-4499,1 53402U 22097Q   23244.52368331 -.00001761  00000-0 -92421-4 0  9999,2 53402  53.2184 294.9140 0002068  79.7840 280.3386 15.08893266 59607,6917.718,95.434,541.013,538.152,0.0
53402.0,STARLINK-4499,PAYLOAD,2023-09-02 09:14:09,15.08843758,0.0001391,53.2174,291.0421,84.3952,275.7199,6.1896e-05,6.97e-06,0.0,0 STARLINK-4499,1 53402U 22097Q   23245.38482825  .00000697  00000-0  61896-4 0  9996,2 53402  53.2174 291.0421 0001391  84.3952 275.7199 15.08843758 59241,6917.869,95.437,540.696,538.772,0.0
53402.0,STARLINK-4499,PAYLOAD,2023-09-02 12:24:55,15.08845349,0.0001457,53.217,290.4466,86.7898,273.3261,8.3375e-05,1.039e-05,0.0,0 STARLINK-4499,1 53402U 22097Q   23245.51730715  .00001039  00000-0  83375-4 0  9992,2 53402  53.2170 290.4466 0001457  86.7898 273.3261 15.08845349 59755,6917.864,95.437,540.737,538.721,0.0
53402.0,STARLINK-4499,PAYLOAD,2023-09-02 20:21:50,15.08846202,0.0001414,53.217,288.9599,84.9837,275.1317,8.5025e-05,1.066e-05,0.0,0 STARLINK-4499,1 53402U 22097Q   23245.84850602  .00001066  00000-0  85025-4 0  9990,2 53402  53.2170 288.9599 0001414  84.9837 275.1317 15.08846202 59807,6917.861,95.437,540.705,538.748,0.0
53402.0,STARLINK-4499,PAYLOAD,2023-09-03 09:04:56,15.08846647,0.0001526,53.2136,286.5797,87.9615,272.1552,8.6549e-05,1.09e-05,0.0,0 STARLINK-4499,1 53402U 22097Q   23246.37842617  .00001090  00000-0  86549-4 0  9995,2 53402  53.2136 286.5797 0001526  87.9615 272.1552 15.08846647 59883,6917.86,95.437,540.781,538.669,0.0
53402.0,STARLINK-4499,PAYLOAD,2023-09-04 02:34:11,15.08834713,0.0001572,53.2166,283.3097,90.7801,269.3372,3.1444e-06,-2.38e-06,0.0,0 STARLINK-4499,1 53402U 22097Q   23247.10707508 -.00000238  00000-0  31444-5 0  9995,2 53402  53.2166 283.3097 0001572  90.7801 269.3372 15.08834713 59502,6917.897,95.438,540.849,538.674,0.0
53402.0,STARLINK-4499,PAYLOAD,2023-09-04 10:31:07,15.08830543,0.0001557,53.2167,281.8222,93.4253,266.6917,-3.4206e-05,-8.32e-06,0.0,0 STARLINK-4499,1 53402U 22097Q   23247.43827964 -.00000832  00000-0 -34206-4 0  9999,2 53402  53.2167 281.8222 0001557  93.4253 266.6917 15.08830543 60043,6917.909,95.438,540.851,538.697,0.0
53402.0,STARLINK-4499,PAYLOAD,2023-09-05 11:57:16,15.08841694,0.0001486,53.2163,277.0637,98.5921,261.524,5.6354e-05,6.09e-06,0.0,0 STARLINK-4499,1 53402U 22097Q   23248.49811116  .00000609  00000-0  56354-4 0  9996,2 53402  53.2163 277.0637 0001486  98.5921 261.5240 15.08841694 59719,6917.875,95.437,540.768,538.712,0.0
53402.0,STARLINK-4499,PAYLOAD,2023-09-06 02:15:45,15.08832884,0.0001376,53.2158,274.3874,97.0186,263.0963,0.00012542,1.708e-05,0.0,0 STARLINK-4499,1 53402U 22097Q   23249.09427575  .00001708  00000-0  12542-3 0  9996,2 53402  53.2158 274.3874 0001376  97.0186 263.0963 15.08832884 59801,6917.902,95.438,540.719,538.815,0.0
53402.0,STARLINK-4499,PAYLOAD,2023-09-06 18:09:36,15.08838282,0.0001311,53.2159,271.4142,94.1725,265.9417,0.0001052,1.387e-05,0.0,0 STARLINK-4499,1 53402U 22097Q   23249.75667530  .00001387  00000-0  10520-3 0  9993,2 53402  53.2159 271.4142 0001311  94.1725 265.9417 15.08838282 60393,6917.886,95.438,540.658,538.844,0.0
53402.0,STARLINK-4499,PAYLOAD,2023-09-07 06:52:42,15.08835101,0.0001424,53.2167,269.0357,96.5936,263.5218,-1.9743e-05,-6.02e-06,0.0,0 STARLINK-4499,1 53402U 22097Q   23250.28660235 -.00000602  00000-0 -19743-4 0  9996,2 53402  53.2167 269.0357 0001424  96.5936 263.5218 15.08835101 59981,6917.895,95.438,540.745,538.775,0.0
53402.0,STARLINK-4499,PAYLOAD,2023-09-07 11:38:51,15.08835975,0.0001449,53.2167,268.1436,98.8348,261.2808,-7.9733e-06,-4.15e-06,0.0,0 STARLINK-4499,1 53402U 22097Q   23250.48532165 -.00000415  00000-0 -79733-5 0  9996,2 53402  53.2167 268.1436 0001449  98.8348 261.2808 15.08835975 60507,6917.893,95.438,540.76,538.755,0.0
53402.0,STARLINK-4499,PAYLOAD,2023-09-08 06:43:29,15.08837952,0.0001557,53.2178,264.5763,103.3201,256.7965,8.6914e-05,1.095e-05,0.0,0 STARLINK-4499,1 53402U 22097Q   23251.28019836  .00001095  00000-0  86914-4 0  9991,2 53402  53.2178 264.5763 0001557 103.3201 256.7965 15.08837952 60131,6917.887,95.438,540.829,538.675,0.0
53402.0,STARLINK-4499,PAYLOAD,2023-09-08 11:29:38,15.08844817,0.0001401,53.2169,263.6841,91.2364,268.8789,7.4249e-05,8.94e-06,0.0,0 STARLINK-4499,1 53402U 22097Q   23251.47891457  .00000894  00000-0  74249-4 0  9993,2 53402  53.2169 263.6841 0001401  91.2364 268.8789 15.08844817 60654,6917.866,95.437,540.7,538.761,0.0
53402.0,STARLINK-4499,PAYLOAD,2023-09-08 17:51:11,15.08833082,0.0001363,53.2166,262.4931,88.8962,271.2186,7.8985e-05,9.69e-06,0.0,0 STARLINK-4499,1 53402U 22097Q   23251.74388122  .00000969  00000-0  78985-4 0  9997,2 53402  53.2166 262.4931 0001363  88.8962 271.2186 15.08833082 60696,6917.902,95.438,540.709,538.824,0.0
53402.0,STARLINK-4499,PAYLOAD,2023-09-09 09:45:02,15.08840879,0.0001393,53.2165,259.519,88.9204,271.1948,0.00010864,1.442e-05,0.0,0 STARLINK-4499,1 53402U 22097Q   23252.40627761  .00001442  00000-0  10864-3 0  9994,2 53402  53.2165 259.5190 0001393  88.9204 271.1948 15.08840879 60307,6917.878,95.437,540.706,538.779,0.0
53402.0,STARLINK-4499,PAYLOAD,2023-09-09 17:41:58,15.0883705,0.0001419,53.2164,258.032,86.249,273.8664,4.4807e-05,4.25e-06,0.0,0 STARLINK-4499,1 53402U 22097Q   23252.73748293  .00000425  00000-0  44807-4 0  9999,2 53402  53.2164 258.0320 0001419  86.2490 273.8664 15.08837050 60358,6917.889,95.438,540.736,538.773,0.0
53402.0,STARLINK-4499,PAYLOAD,2023-09-10 08:00:26,15.08839547,0.0001403,53.2163,255.3556,89.0459,271.0694,1.5176e-05,-4.6e-07,0.0,0 STARLINK-4499,1 53402U 22097Q   23253.33364328 -.00000046  00000-0  15176-4 0  9996,2 53402  53.2163 255.3556 0001403  89.0459 271.0694 15.08839547 60937,6917.882,95.438,540.717,538.776,0.0
53402.0,STARLINK-4499,PAYLOAD,2023-09-10 17:32:46,15.08830044,0.0001396,53.2161,253.5728,84.3139,275.8012,-9.6168e-05,-1.818e-05,0.0,0 STARLINK-4499,1 53402U 22097Q   23253.73109431 -.00001818  00000-0 -96168-4 0  9991,2 53402  53.2161 253.5728 0001396  84.3139 275.8012 15.08830044 60502,6917.911,95.438,540.742,538.81,0.0
53402.0,STARLINK-4499,PAYLOAD,2023-09-11 06:15:51,15.08828866,0.0001446,53.2163,251.1926,87.647,272.4687,-4.2801e-05,-9.69e-06,0.0,0 STARLINK-4499,1 53402U 22097Q   23254.26101815 -.00000969  00000-0 -42801-4 0  9999,2 53402  53.2163 251.1926 0001446  87.6470 272.4687 15.08828866 61071,6917.914,95.438,540.78,538.779,0.0
53402.0,STARLINK-4499,PAYLOAD,2023-09-12 02:55:52,15.08838939,0.0001402,53.2167,247.3269,87.385,272.7302,0.00013441,1.852e-05,0.0,0 STARLINK-4499,1 53402U 22097Q   23255.12213183  .00001852  00000-0  13441-3 0  9994,2 53402  53.2167 247.3269 0001402  87.3850 272.7302 15.08838939 60712,6917.884,95.438,540.719,538.779,0.0
53402.0,STARLINK-4499,PAYLOAD,2023-09-12 06:06:38,15.08842314,0.0001432,53.2165,246.7322,88.5324,271.5832,0.00013733,1.898e-05,0.0,0 STARLINK-4499,1 53402U 22097Q   23255.25461076  .00001898  00000-0  13733-3 0  9998,2 53402  53.2165 246.7322 0001432  88.5324 271.5832 15.08842314 61229,6917.873,95.437,540.729,538.748,0.0
53402.0,STARLINK-4499,PAYLOAD,2023-09-13 02:46:38,15.08854923,0.0001377,53.2165,242.8666,89.5404,270.5746,0.00035596,5.384e-05,0.0,0 STARLINK-4499,1 53402U 22097Q   23256.11571984  .00005384  00000-0  35596-3 0  9999,2 53402  53.2165 242.8666 0001377  89.5404 270.5746 15.08854923 60866,6917.835,95.437,540.652,538.747,0.0
